67313,q
67314,.4074422972845635
67315,0.00038953
67316,au
67317,i
67318,5.89540212756406
67319,0.005775
67320,deg
67321,node
67322,143.9565045612473
67323,0.005201
67324,deg
67325,peri
67326,46.65829609159191
67327,0.017467
67328,deg
67329,M
67330,239.4064507707312
67331,1.2536
67332,deg
67333,tp
67334,2458203.900605409906(2018-Mar-26.40060541)
67335,4.7098
67336,JED
67337,period
67338,1204.2453255229283.30
67339,1.54130.00422
67340,dyr
67341,n
67342,.2989424101303234
67343,0.00038262
67344,deg/d
67345,Q
67346,4.022938172079069
67347,0.0034327
67348,au
67349,Orbit Determination Parameters
67350,   # obs. used (total)   
67351,  34  
67352,   data-arc span   
67353,  34 days  
67354,   first obs. used   
67355,  2008-07-31  
67356,   last obs. used   
67357,  2008-09-03  
67358,   planetary ephem.   
67359,  DE431  
67360,   SB-pert. ephem.   
67361,  SB431-BIG16  
67362,   condition code   
67363,  7  
67364,   fit RMS   
67365,  .71632  
67366,   data source   
67367,  ORB  
67368,   producer   
67369,  Otto Matic  
67370,   solution date   
67371,  2014-Jun-13 09:27:17  
67372,Additional Information
67373, Earth MOID = .0421965 au 
67374, Jupiter MOID = .96275 au 
67375, T_jup = 3.099 
67376,Physical Parameter Table
67377,Parameter
67378,Symbol
67379,Value
67380,Units
67381,Sigma
67382,Reference
67383,Notes
67384,absolute magnitude
67385,H
67386,19.9
67387,mag
67388,n/a
67389,MPO143304
67390, 
67391,Search JPL
67392,Orbital Elements at Epoch 2457800.5 (2017-Feb-16.0) TDB
67393,Reference: JPL 25 (heliocentric ecliptic J2000)
67394,JPL 25
67395, Element
67396,Value
67397,Uncertainty (1-sigma) 
67398, Units 
67399,e
67400,.6760669011204991
67401,5.9962e-05
67402, 
67403,a
67404,2.209554346008718
67405,0.00030233
67406,au
67407,q
67408,.7157477864452733
67409,3.4829e-05
67410,au
67411,i
67412,5.218914456685156
67413,0.00069246
67414,deg
67415,node
67416,186.1833101509357
67417,0.0023809
67418,deg
67419,peri
67420,37.44416857714634
67421,0.0013593
67422,deg
67423,M
67424,238.9934180926326
67425,0.19791
67426,deg
67427,tp
67428,2458203.738463722427(2018-Mar-26.23846372)
67429,0.74226
67430,JED
67431,period
67432,1199.6524870952933.28
67433,0.246220.0006741
67434,dyr
67435,n
67436,.3000869033928855
67437,6.1591e-05
67438,deg/d
67439,Q
67440,3.703360905572164
67441,0.00050673
67442,au
67443,Orbit Determination Parameters
67444,   # obs. used (total)   
67445,  94  
67446,   data-arc span   
67447,  59 days  
67448,   first obs. used   
67449,  2008-07-30  
67450,   last obs. used   
67451,  2008-09-27  
67452,   planetary ephem.   
67453,  DE431  
67454,   SB-pert. ephem.   
67455,  SB431-BIG16  
67456,   condition code   
67457,  5  
67458,   fit RMS   
67459,  .57264  
67460,   data source   
67461,  ORB  
67462,   producer   
67463,  Otto Matic  
67464,   solution date   
67465,  2014-Jun-13 09:27:07  
67466,Additional Information
67467, Earth MOID = .0498686 au 
67468, Jupiter MOID = 1.29004 au 
67469, T_jup = 3.311 
67470,Physical Parameter Table
67471,Parameter
67472,Symbol
67473,Value
67474,Units
67475,Sigma
67476,Reference
67477,Notes
67478,absolute magnitude
67479,H
67480,19.7
67481,mag
67482,n/a
67483,MPO147447
67484, 
67485,Search JPL
67486,Orbital Elements at Epoch 2457800.5 (2017-Feb-16.0) TDB
67487,Reference: JPL 31 (heliocentric ecliptic J2000)
67488,JPL 31
67489, Element
67490,Value
67491,Uncertainty (1-sigma) 
67492, Units 
67493,e
67494,.6447642166065497
67495,8.897e-08
67496, 
67497,a
67498,1.908271976921798
67499,5.2631e-08
67500,au
67501,q
67502,.6778864906495831
67503,1.7514e-07
67504,au
67505,i
67506,7.038246396525745
67507,2.3693e-05
67508,deg
67509,node
67510,137.134816774643
67511,4.6762e-05
67512,deg
67513,peri
67514,73.07783711933804
67515,7.6182e-05
67516,deg
67517,M
67518,112.8193772595284
67519,6.8486e-05
67520,deg
67521,tp
67522,2457498.755034121103(2016-Apr-20.25503412)
67523,0.00017112
67524,JED
67525,period
67526,962.85044604098242.64
67527,3.9834e-051.091e-07
67528,dyr
67529,n
67530,.3738898408161272
67531,1.5468e-08
67532,deg/d
67533,Q
67534,3.138657463194013
67535,8.6566e-08
67536,au
67537,Orbit Determination Parameters
67538,   # obs. used (total)   
67539,  138  
67540,   data-arc span   
67541,  2921 days (8.00 yr)  
67542,   first obs. used   
67543,  2008-07-30  
67544,   last obs. used   
67545,  2016-07-29  
67546,   planetary ephem.   
67547,  DE431  
67548,   SB-pert. ephem.   
67549,  SB431-BIG16  
67550,   condition code   
67551,  0  
67552,   fit RMS   
67553,  .55142  
67554,   data source   
67555,  ORB  
67556,   producer   
67557,  Otto Matic  
67558,   solution date   
67559,  2016-Jul-30 06:16:22  
67560,Additional Information
67561, Earth MOID = .0105369 au 
67562, Jupiter MOID = 1.86467 au 
67563, T_jup = 3.646 
67564,Physical Parameter Table
67565,Parameter
67566,Symbol
67567,Value
67568,Units
67569,Sigma
67570,Reference
67571,Notes
67572,absolute magnitude
67573,H
67574,20.4
67575,mag
67576,n/a
67577,MPO363342
67578, 
67579,Search JPL
67580,Orbital Elements at Epoch 2457800.5 (2017-Feb-16.0) TDB
67581,Reference: JPL 25 (heliocentric ecliptic J2000)
67582,JPL 25
67583, Element
67584,Value
67585,Uncertainty (1-sigma) 
67586, Units 
67587,e
67588,.2775297989068945
67589,1.3522e-07
67590, 
67591,a
67592,1.206347578694929
67593,1.3523e-08
67594,au
67595,q
67596,.8715501777679064
67597,1.7269e-07
67598,au
67599,i
67600,29.73747777708672
67601,3.132e-05
67602,deg
67603,node
67604,304.8555307036616
67605,4.4173e-06
67606,deg
67607,peri
67608,281.3142631655028
67609,1.9002e-05
67610,deg
67611,M
67612,215.1009295723267
67613,3.6819e-05
67614,deg
67615,tp
67616,2457995.291593665576(2017-Aug-29.79159367)
67617,5.2468e-05
67618,JED
67619,period
67620,483.95737469282311.33
67621,8.1374e-062.228e-08
67622,dyr
67623,n
67624,.7438671643933493
67625,1.2508e-08
67626,deg/d
67627,Q
67628,1.541144979621952
67629,1.7276e-08
67630,au
67631,Orbit Determination Parameters
67632,   # obs. used (total)   
67633,  181  
67634,   data-arc span   
67635,  2757 days (7.55 yr)  
67636,   first obs. used   
67637,  2008-07-26  
67638,   last obs. used   
67639,  2016-02-12  
67640,   planetary ephem.   
67641,  DE431  
67642,   SB-pert. ephem.   
67643,  SB431-BIG16  
67644,   condition code   
67645,  0  
67646,   fit RMS   
67647,  .66989  
67648,   data source   
67649,  ORB  
67650,   producer   
67651,  Otto Matic  
67652,   solution date   
67653,  2016-Feb-25 15:10:32  
67654,Additional Information
67655, Earth MOID = .0363407 au 
67656, Jupiter MOID = 3.73997 au 
67657, T_jup = 5.117 
67658,Physical Parameter Table
67659,Parameter
67660,Symbol
67661,Value
67662,Units
67663,Sigma
67664,Reference
67665,Notes
67666,absolute magnitude
67667,H
67668,21.6
67669,mag
67670,n/a
67671,MPO369072
67672, 
67673,Search JPL
67674,Orbital Elements at Epoch 2457800.5 (2017-Feb-16.0) TDB
67675,Reference: JPL 26 (heliocentric ecliptic J2000)
67676,JPL 26
67677, Element
67678,Value
67679,Uncertainty (1-sigma) 
67680, Units 
67681,e
67682,.7009075922012994
67683,1.2087e-06
67684, 
67685,a
67686,2.106228275933963
67687,1.0385e-07
67688,au
67689,q
67690,.629956886422795
67691,2.547e-06
67692,au
67693,i
67694,5.488793513338704
67695,5.2506e-05
67696,deg
67697,node
67698,306.1677877830854
67699,5.1059e-05
67700,deg
67701,peri
67702,253.4756058315806
67703,0.00022769
67704,deg
67705,M
67706,312.7645451187713
67707,3.9178e-05
67708,deg
67709,tp
67710,2457946.994792300936(2017-Jul-12.49479230)
67711,0.0001317
67712,JED
67713,period
67714,1116.4944925574323.06
67715,8.2577e-052.261e-07
67716,dyr
67717,n
67718,.3224377750179379
67719,2.3848e-08
67720,deg/d
67721,Q
67722,3.582499665445131
67723,1.7664e-07
67724,au
67725,Orbit Determination Parameters
67726,   # obs. used (total)   
67727,  117  
67728,   data-arc span   
67729,  2216 days (6.07 yr)  
67730,   first obs. used   
67731,  2008-07-26  
67732,   last obs. used   
67733,  2014-08-20  
67734,   planetary ephem.   
67735,  DE431  
67736,   SB-pert. ephem.   
67737,  SB431-BIG16  
67738,   condition code   
67739,  0  
67740,   fit RMS   
67741,  .54798  
67742,   data source   
67743,  ORB  
67744,   producer   
67745,  Otto Matic  
67746,   solution date   
67747,  2014-Sep-12 12:27:40  
67748,Additional Information
67749, Earth MOID = .0148797 au 
67750, Jupiter MOID = 1.45698 au 
67751, T_jup = 3.374 
67752,Physical Parameter Table
67753,Parameter
67754,Symbol
67755,Value
67756,Units
67757,Sigma
67758,Reference
67759,Notes
67760,absolute magnitude
67761,H
67762,19.7
67763,mag
67764,n/a
67765,MPO201839
67766, 
67767,Search JPL
67768,Orbital Elements at Epoch 2457800.5 (2017-Feb-16.0) TDB
67769,Reference: JPL 16 (heliocentric ecliptic J2000)
67770,JPL 16
67771, Element
67772,Value
67773,Uncertainty (1-sigma) 
67774, Units 
67775,e
67776,.6734717671800439
67777,1.2885e-07
67778, 
67779,a
67780,2.78717238460492
67781,3.3658e-07
67782,au
67783,q
67784,.9100904733096276
67785,3.7177e-07
67786,au
67787,i
67788,11.67545417185699
67789,2.148e-05
67790,deg
67791,node
67792,36.43878764357864
67793,0.00015681
67794,deg
67795,peri
67796,206.6827718579499
67797,0.00017333
67798,deg
67799,M
67800,310.0203354156447
67801,0.00012768
67802,deg
67803,tp
67804,2458036.458164328303(2017-Oct-09.95816433)
67805,0.0006455
67806,JED
67807,period
67808,1699.5900205536544.65
67809,0.000307868.429e-07
67810,dyr
67811,n
67812,.211815788305657
67813,3.8368e-08
67814,deg/d
67815,Q
67816,4.664254295900212
67817,5.6325e-07
67818,au
67819,Orbit Determination Parameters
67820,   # obs. used (total)   
67821,  39  
67822,   data-arc span   
67823,  1979 days (5.42 yr)  
67824,   first obs. used   
67825,  2008-02-08  
67826,   last obs. used   
67827,  2013-07-10  
67828,   planetary ephem.   
67829,  DE431  
67830,   SB-pert. ephem.   
67831,  SB431-BIG16  
67832,   condition code   
67833,  1  
67834,   fit RMS   
67835,  .50009  
67836,   data source   
67837,  ORB  
67838,   producer   
67839,  Otto Matic  
67840,   solution date   
67841,  2014-Jun-13 09:26:48  
